NORAD_CAT_ID,OBJECT_NAME,OBJECT_TYPE,EPOCH,MEAN_MOTION,ECCENTRICITY,INCLINATION,RA_OF_ASC_NODE,ARG_OF_PERICENTER,MEAN_ANOMALY,BSTAR,MEAN_MOTION_DOT,MEAN_MOTION_DDOT,TLE_LINE0,TLE_LINE1,TLE_LINE2,SEMIMAJOR_AXIS,PERIOD,APOGEE,PERIGEE,DECAYED
56794.0,STARLINK-6060,PAYLOAD,2024-08-21 20:00:01,14.98355353,0.0003364,70.001,308.6416,273.8518,98.3252,-0.0035985,-0.00042798,0.0,0 STARLINK-6060,1 56794U 23078AD  24234.83334491 -.00042798  00000-0 -35985-2 0  9995,2 56794  70.0010 308.6416 0003364 273.8518  98.3252 14.98355353 68828,6950.114,96.105,574.318,569.641,0.0
56794.0,STARLINK-6060,PAYLOAD,2024-08-21 22:00:00,14.983403,0.0003351,70.0011,308.4315,271.9829,189.5722,-0.0013238,-0.00015857,0.0,0 STARLINK-6060,1 56794U 23078AD  24234.91667824 -.00015857  00000-0 -13238-2 0  9996,2 56794  70.0011 308.4315 0003351 271.9829 189.5722 14.98340300  5670,6950.161,96.106,574.355,569.697,0.0
56794.0,STARLINK-6060,PAYLOAD,2024-08-22 00:00:00,14.98313636,0.0003401,70.0011,308.2213,270.5511,280.3869,0.0042982,0.00051551,0.0,0 STARLINK-6060,1 56794U 23078AD  24235.00001157  .00051551  00000-0  42982-2 0  9995,2 56794  70.0011 308.2213 0003401 270.5511 280.3869 14.98313636 68857,6950.243,96.108,574.472,569.745,0.0
